NORAD_CAT_ID,OBJECT_NAME,OBJECT_TYPE,EPOCH,MEAN_MOTION,ECCENTRICITY,INCLINATION,RA_OF_ASC_NODE,ARG_OF_PERICENTER,MEAN_ANOMALY,BSTAR,MEAN_MOTION_DOT,MEAN_MOTION_DDOT,TLE_LINE0,TLE_LINE1,TLE_LINE2,SEMIMAJOR_AXIS,PERIOD,APOGEE,PERIGEE,DECAYED
54192.0,STARLINK-5268,PAYLOAD,2023-04-19 05:42:06,15.08847851,0.0001319,53.2194,52.0013,94.7588,265.3554,0.0012709,0.00020001,0.0,0 STARLINK-5268,1 54192U 22141AM  23109.23758075  .00020001  00000-0  12709-2 0  9997,2 54192  53.2194  52.0013 0001319  94.7588 265.3554 15.08847851 26660,6917.856,95.437,540.634,538.809,0.0
54192.0,STARLINK-5268,PAYLOAD,2023-04-20 02:22:07,15.08855786,0.0001011,53.2193,48.1384,83.1561,276.9546,0.0010641,0.00016695,0.0,0 STARLINK-5268,1 54192U 22141AM  23110.09869801  .00016695  00000-0  10641-2 0  9990,2 54192  53.2193  48.1384 0001011  83.1561 276.9546 15.08855786 27024,6917.832,95.437,540.397,538.998,0.0
54192.0,STARLINK-5268,PAYLOAD,2023-04-20 05:32:53,15.08863378,0.0001107,53.2192,47.542,92.2016,267.9103,0.0010006,0.00015683,0.0,0 STARLINK-5268,1 54192U 22141AM  23110.23117503  .00015683  00000-0  10006-2 0  9992,2 54192  53.2192  47.5420 0001107  92.2016 267.9103 15.08863378 26810,6917.809,95.436,540.44,538.908,0.0
54192.0,STARLINK-5268,PAYLOAD,2023-04-21 05:23:41,15.08834566,0.0001161,53.2191,43.0818,107.6302,252.4817,9.1058e-06,-1.43e-06,0.0,0 STARLINK-5268,1 54192U 22141AM  23111.22478459 -.00000143  00000-0  91058-5 0  9997,2 54192  53.2191  43.0818 0001161 107.6302 252.4817 15.08834566 26964,6917.897,95.438,540.565,538.959,0.0
54192.0,STARLINK-5268,PAYLOAD,2023-04-22 05:14:28,15.08855282,0.0001157,53.2195,38.6223,106.3445,253.7674,0.00068695,0.00010666,0.0,0 STARLINK-5268,1 54192U 22141AM  23112.21838163  .00010666  00000-0  68695-3 0  9998,2 54192  53.2195  38.6223 0001157 106.3445 253.7674 15.08855282 27118,6917.834,95.437,540.499,538.898,0.0
54192.0,STARLINK-5268,PAYLOAD,2023-04-23 01:54:28,15.08852208,0.0001453,53.2183,34.7565,113.5878,246.5267,0.00029571,4.423e-05,0.0,0 STARLINK-5268,1 54192U 22141AM  23113.07949909  .00004423  00000-0  29571-3 0  9998,2 54192  53.2183  34.7565 0001453 113.5878 246.5267 15.08852208 27472,6917.843,95.437,540.713,538.703,0.0
54192.0,STARLINK-5268,PAYLOAD,2023-04-23 05:05:14,15.08852029,0.0001192,53.2186,34.1635,121.3093,238.8016,0.00026886,3.995e-05,0.0,0 STARLINK-5268,1 54192U 22141AM  23113.21197830  .00003995  00000-0  26886-3 0  9991,2 54192  53.2186  34.1635 0001192 121.3093 238.8016 15.08852029 27267,6917.844,95.437,540.533,538.884,0.0
54192.0,STARLINK-5268,PAYLOAD,2023-04-24 03:20:38,15.08870324,0.0001742,53.2176,30.0006,119.3349,240.7818,0.00079946,0.00012469,0.0,0 STARLINK-5268,1 54192U 22141AM  23114.13933285  .00012469  00000-0  79946-3 0  9996,2 54192  53.2176  30.0006 0001742 119.3349 240.7818 15.08870324 27636,6917.788,95.436,540.858,538.448,0.0
54192.0,STARLINK-5268,PAYLOAD,2023-04-25 01:36:00,15.0888715,0.0001356,53.2174,25.8368,140.3705,219.7387,0.00060542,9.373e-05,0.0,0 STARLINK-5268,1 54192U 22141AM  23115.06666871  .00009373  00000-0  60542-3 0  9995,2 54192  53.2174  25.8368 0001356 140.3705 219.7387 15.08887150 27775,6917.736,95.435,540.539,538.663,0.0
54192.0,STARLINK-5268,PAYLOAD,2023-04-26 01:26:50,15.08801967,0.0001266,53.2182,21.3734,103.9364,256.1769,-0.00059337,-9.709e-05,0.0,0 STARLINK-5268,1 54192U 22141AM  23116.06030437 -.00009709  00000-0 -59337-3 0  9994,2 54192  53.2182  21.3734 0001266 103.9364 256.1769 15.08801967 27690,6917.997,95.44,540.737,538.986,0.0
54192.0,STARLINK-5268,PAYLOAD,2023-04-26 23:42:15,15.08811471,0.0001184,53.2172,17.2138,79.7357,280.3769,0.00084054,0.00013104,0.0,0 STARLINK-5268,1 54192U 22141AM  23116.98768256  .00013104  00000-0  84054-3 0  9998,2 54192  53.2172  17.2138 0001184  79.7357 280.3769 15.08811471 28064,6917.968,95.439,540.652,539.014,0.0
54192.0,STARLINK-5268,PAYLOAD,2023-04-27 02:53:01,15.08828578,0.0001296,53.2175,16.6184,88.5436,271.5704,0.00074055,0.00011514,0.0,0 STARLINK-5268,1 54192U 22141AM  23117.12015812  .00011514  00000-0  74055-3 0  9991,2 54192  53.2175  16.6184 0001296  88.5436 271.5704 15.08828578 28080,6917.915,95.438,540.677,538.884,0.0
54192.0,STARLINK-5268,PAYLOAD,2023-04-28 02:43:47,15.08874979,0.0001334,53.2171,12.1587,83.6242,276.4902,0.0010507,0.00016489,0.0,0 STARLINK-5268,1 54192U 22141AM  23118.11374807  .00016489  00000-0  10507-2 0  9990,2 54192  53.2171  12.1587 0001334  83.6242 276.4902 15.08874979 28235,6917.773,95.435,540.561,538.716,0.0
54192.0,STARLINK-5268,PAYLOAD,2023-04-29 02:34:34,15.0885365,0.0001193,53.2174,7.6989,96.1979,263.9149,0.00040898,6.229e-05,0.0,0 STARLINK-5268,1 54192U 22141AM  23119.10734551  .00006229  00000-0  40898-3 0  9994,2 54192  53.2174   7.6989 0001193  96.1979 263.9149 15.08853650 28385,6917.839,95.437,540.529,538.878,0.0
54192.0,STARLINK-5268,PAYLOAD,2023-04-29 16:53:02,15.08838421,0.0001342,53.2173,5.0202,107.9937,252.1201,0.00036072,5.457e-05,0.0,0 STARLINK-5268,1 54192U 22141AM  23119.70350649  .00005457  00000-0  36072-3 0  9993,2 54192  53.2173   5.0202 0001342 107.9937 252.1201 15.08838421 28473,6917.885,95.438,540.679,538.822,0.0
54192.0,STARLINK-5268,PAYLOAD,2023-04-29 23:14:35,15.08849646,0.0001214,53.2171,3.8306,100.3673,259.7456,0.00019773,2.861e-05,0.0,0 STARLINK-5268,1 54192U 22141AM  23119.96846230  .00002861  00000-0  19773-3 0  9992,2 54192  53.2171   3.8306 0001214 100.3673 259.7456 15.08849646 28289,6917.851,95.437,540.556,538.876,0.0
54192.0,STARLINK-5268,PAYLOAD,2023-04-30 19:54:36,15.08836657,0.0001161,53.2166,359.9666,113.5212,246.5902,1.0728e-06,-2.71e-06,0.0,0 STARLINK-5268,1 54192U 22141AM  23120.82958870 -.00000271  00000-0  10728-5 0  9990,2 54192  53.2166 359.9666 0001161 113.5212 246.5902 15.08836657 28641,6917.891,95.438,540.559,538.952,0.0
54192.0,STARLINK-5268,PAYLOAD,2023-04-30 21:29:59,15.08836991,0.000112,53.2168,359.6693,111.0367,249.0745,3.3489e-06,-2.35e-06,0.0,0 STARLINK-5268,1 54192U 22141AM  23120.89582926 -.00000235  00000-0  33489-5 0  9991,2 54192  53.2168 359.6693 0001120 111.0367 249.0745 15.08836991 28429,6917.89,95.438,540.529,538.98,0.0
54192.0,STARLINK-5268,PAYLOAD,2023-05-01 21:20:46,15.08844998,0.000106,53.2171,355.2073,116.8582,243.2518,0.00020023,2.901e-05,0.0,0 STARLINK-5268,1 54192U 22141AM  23121.88942853  .00002901  00000-0  20023-3 0  9999,2 54192  53.2171 355.2073 0001060 116.8582 243.2518 15.08844998 28804,6917.865,95.437,540.463,538.997,0.0
54192.0,STARLINK-5268,PAYLOAD,2023-05-02 00:31:32,15.08850806,0.0001286,53.2171,354.6126,119.3765,240.7355,0.00016007,2.261e-05,0.0,0 STARLINK-5268,1 54192U 22141AM  23122.02190527  .00002261  00000-0  16007-3 0  9995,2 54192  53.2171 354.6126 0001286 119.3765 240.7355 15.08850806 28599,6917.847,95.437,540.602,538.823,0.0
54192.0,STARLINK-5268,PAYLOAD,2023-05-02 19:36:10,15.08841927,0.0001051,53.2167,351.0449,100.5984,259.5126,0.00019344,2.792e-05,0.0,0 STARLINK-5268,1 54192U 22141AM  23122.81679144  .00002792  00000-0  19344-3 0  9995,2 54192  53.2167 351.0449 0001051 100.5984 259.5126 15.08841927 28945,6917.874,95.437,540.467,539.012,0.0
54192.0,STARLINK-5268,PAYLOAD,2023-05-02 21:11:33,15.08842533,0.0001043,53.2168,350.7476,97.4478,262.6633,0.00019688,2.847e-05,0.0,0 STARLINK-5268,1 54192U 22141AM  23122.88303126  .00002847  00000-0  19688-3 0  9998,2 54192  53.2168 350.7476 0001043  97.4478 262.6633 15.08842533 28723,6917.873,95.437,540.459,539.016,0.0
54192.0,STARLINK-5268,PAYLOAD,2023-05-03 08:19:17,15.08812712,0.0001033,53.217,348.6655,96.8024,263.3085,-0.00023714,-4.057e-05,0.0,0 STARLINK-5268,1 54192U 22141AM  23123.34673148 -.00004057  00000-0 -23714-3 0  9996,2 54192  53.2170 348.6655 0001033  96.8024 263.3085 15.08812712 29029,6917.964,95.439,540.543,539.114,0.0
54192.0,STARLINK-5268,PAYLOAD,2023-05-03 19:26:59,15.08830589,0.0001119,53.2168,346.5855,78.9161,281.1957,-5.544e-05,-1.17e-05,0.0,0 STARLINK-5268,1 54192U 22141AM  23123.81040803 -.00001170  00000-0 -55440-4 0  9999,2 54192  53.2168 346.5855 0001119  78.9161 281.1957 15.08830589 29098,6917.909,95.438,540.548,539.0,0.0
54192.0,STARLINK-5268,PAYLOAD,2023-05-03 21:02:22,15.08825891,0.0001321,53.216,346.2931,49.1265,310.9841,-3.0031e-05,-7.66e-06,0.0,0 STARLINK-5268,1 54192U 22141AM  23123.87665204 -.00000766  00000-0 -30031-4 0  9992,2 54192  53.2160 346.2931 0001321  49.1265 310.9841 15.08825891 28870,6917.924,95.438,540.702,538.875,0.0
54192.0,STARLINK-5268,PAYLOAD,2023-05-04 08:10:03,15.08845517,0.0001127,53.216,344.2098,73.0954,287.0161,0.00022501,3.296e-05,0.0,0 STARLINK-5268,1 54192U 22141AM  23124.34032336  .00003296  00000-0  22501-3 0  9990,2 54192  53.2160 344.2098 0001127  73.0954 287.0161 15.08845517 29177,6917.864,95.437,540.508,538.949,0.0
54192.0,STARLINK-5268,PAYLOAD,2023-05-04 20:53:08,15.088721,0.0001145,53.2159,341.8288,72.1711,287.9406,0.0012513,0.000197,0.0,0 STARLINK-5268,1 54192U 22141AM  23124.87024245  .00019700  00000-0  12513-2 0  9996,2 54192  53.2159 341.8288 0001145  72.1711 287.9406 15.08872100 29023,6917.782,95.436,540.439,538.855,0.0
54192.0,STARLINK-5268,PAYLOAD,2023-05-04 22:28:31,15.08878715,0.000115,53.216,341.5313,72.0754,288.0364,0.0014275,0.00022528,0.0,0 STARLINK-5268,1 54192U 22141AM  23124.93648054  .00022528  00000-0  14275-2 0  9992,2 54192  53.2160 341.5313 0001150  72.0754 288.0364 15.08878715 29262,6917.762,95.435,540.423,538.832,0.0
54192.0,STARLINK-5268,PAYLOAD,2023-05-05 20:43:55,15.08855249,0.0001144,53.216,337.3683,79.7975,280.3146,0.0010133,0.00015882,0.0,0 STARLINK-5268,1 54192U 22141AM  23125.86383759  .00015882  00000-0  10133-2 0  9997,2 54192  53.2160 337.3683 0001144  79.7975 280.3146 15.08855249 29403,6917.834,95.437,540.49,538.907,0.0
54192.0,STARLINK-5268,PAYLOAD,2023-05-05 23:54:41,15.08859346,0.0001112,53.216,336.7734,80.7898,279.322,0.00059733,9.236e-05,0.0,0 STARLINK-5268,1 54192U 22141AM  23125.99631555  .00009236  00000-0  59733-3 0  9997,2 54192  53.2160 336.7734 0001112  80.7898 279.3220 15.08859346 29193,6917.821,95.436,540.456,538.917,0.0
